[{"OBJECT_NAME":"STARLINK-36203","OBJECT_ID":"2025-304Y","EPOCH":"2026-03-09T17:06:21.145536","MEAN_MOTION":14.98333151,"ECCENTRICITY":0.00041027,"INCLINATION":70.0025,"RA_OF_ASC_NODE":174.5769,"ARG_OF_PERICENTER":269.7845,"MEAN_ANOMALY":90.2844,"EPHEMERIS_TYPE":0,"CLASSIFICATION_TYPE":"U","NORAD_CAT_ID":67214,"ELEMENT_SET_NO":999,"REV_AT_EPOCH":1388,"BSTAR":0.00025089014,"MEAN_MOTION_DOT":2.902e-5,"MEAN_MOTION_DDOT":0},{"OBJECT_NAME":"CZ-4C DEB","OBJECT_ID":"2016-049F","EPOCH":"2026-03-09T07:30:38.295072","MEAN_MOTION":14.98603573,"ECCENTRICITY":0.00676497,"INCLINATION":98.3214,"RA_OF_ASC_NODE":204.4397,"ARG_OF_PERICENTER":163.6943,"MEAN_ANOMALY":196.6477,"EPHEMERIS_TYPE":0,"CLASSIFICATION_TYPE":"U","NORAD_CAT_ID":43601,"ELEMENT_SET_NO":999,"REV_AT_EPOCH":61767,"BSTAR":0.0021508763,"MEAN_MOTION_DOT":0.00027067,"MEAN_MOTION_DDOT":0}]
